OBJECT_NAME,OBJECT_ID,EPOCH,MEAN_MOTION,ECCENTRICITY,INCLINATION,RA_OF_ASC_NODE,ARG_OF_PERICENTER,MEAN_ANOMALY,EPHEMERIS_TYPE,CLASSIFICATION_TYPE,NORAD_CAT_ID,ELEMENT_SET_NO,REV_AT_EPOCH,BSTAR,MEAN_MOTION_DOT,MEAN_MOTION_DDOT
SAUDISAT 1C (SO-50),2002-058C,2026-07-01T04:20:46.405824,14.83076090,.0074926,64.5520,85.6885,259.8630,99.4018,0,U,27607,999,26653,.1394E-3,.1037E-4,0
SAUDISAT 2,2004-025F,2026-06-30T23:20:54.175200,14.56691575,.0023479,98.5510,182.3111,253.6810,106.1805,0,U,28371,999,16775,.70125E-4,.264E-5,0
SAUDISAT 3,2007-012B,2026-07-01T03:08:47.831424,14.71433406,.0014594,98.1461,132.5412,177.8647,182.2625,0,U,31118,999,2979,.52346E-4,.274E-5,0
PISAT,2016-059B,2026-06-30T23:18:48.464064,14.69007441,.0029555,97.8181,181.8319,158.6922,201.5522,0,U,41784,999,52176,.18071E-3,.1019E-4,0
FLYING LAPTOP,2017-042G,2026-07-01T04:23:51.544608,15.01232383,.002,97.4748,337.1825,76.9523,283.3933,0,U,42831,999,48855,.22183E-3,.2802E-4,0
SALSAT,2020-068K,2026-07-01T00:16:38.041824,15.29994176,.0007968,97.8843,185.9193,248.9011,111.1377,0,U,46495,999,31747,.33118E-3,.9542E-4,0
